{"type": "FeatureCollection", "features": [ {"type": "Feature", "properties": {"norad_id": 66826, "name": "STARLINK-35898", "group": "last-30-days", "lat": 22.859135666169013, "lon": 13.907919271071128, "alt_km": 316.56035761922885, "timestamp": "2025-12-11T08:58:25.856178+00:00", "meta": {"OBJECT_NAME": "STARLINK-35898", "OBJECT_ID": "2025-280F", "EPOCH": "2025-12-10T18:00:02.000160", "MEAN_MOTION": 15.87096157, "ECCENTRICITY": 0.0003795, "INCLINATION": 69.9935, "RA_OF_ASC_NODE": 204.5397, "ARG_OF_PERICENTER": 269.5275, "MEAN_ANOMALY": 284.9348, "EPHEMERIS_TYPE": 0, "CLASSIFICATION_TYPE": "U", "NORAD_CAT_ID": 66826, "ELEMENT_SET_NO": 999, "REV_AT_EPOCH": 258, "BSTAR": -0.007008, "MEAN_MOTION_DOT": -0.01602116, "MEAN_MOTION_DDOT": 0}, "tle": {"line1": "1 66826U 25280F   25344.75002315 -.01602116  00000+0 -70080-2 0  9991", "line2": "2 66826  69.9935 204.5397 0003795 269.5275 284.9348 15.87096157  2583"}}, "geometry": {"type": "Point", "coordinates": [13.907919271071128, 22.859135666169013]}}, {"type": "Feature", "properties": {"norad_id": 66827, "name": "STARLINK-35959", "group": "last-30-days", "lat": 21.060560658497756, "lon": 14.675967730683354, "alt_km": 316.67817443741296, "timestamp": "2025-12-11T08:58:25.856188+00:00", "meta": {"OBJECT_NAME": "STARLINK-35959", "OBJECT_ID": "2025-280G", "EPOCH": "2025-12-10T18:00:02.000160", "MEAN_MOTION": 15.87138781, "ECCENTRICITY": 0.0003795, "INCLINATION": 69.9933, "RA_OF_ASC_NODE": 204.5376, "ARG_OF_PERICENTER": 269.301, "MEAN_ANOMALY": 287.0125, "EPHEMERIS_TYPE": 0, "CLASSIFICATION_TYPE": "U", "NORAD_CAT_ID": 66827, "ELEMENT_SET_NO": 999, "REV_AT_EPOCH": 258, "BSTAR": -0.0070318, "MEAN_MOTION_DOT": -0.01609866, "MEAN_MOTION_DDOT": 0}, "tle": {"line1": "1 66827U 25280G   25344.75002315 -.01609866  00000+0 -70318-2 0  9995", "line2": "2 66827  69.9933 204.5376 0003795 269.3010 287.0125 15.87138781  2581"}}, "geometry": {"type": "Point", "coordinates": [14.675967730683354, 21.060560658497756]}}, {"type": "Feature", "properties": {"norad_id": 66828, "name": "STARLINK-35982", "group": "last-30-days", "lat": 17.264178291631147, "lon": 16.235008038372595, "alt_km": 317.00717202499527, "timestamp": "2025-12-11T08:58:25.856201+00:00", "meta": {"OBJECT_NAME": "STARLINK-35982", "OBJECT_ID": "2025-280H", "EPOCH": "2025-12-10T18:00:02.000160", "MEAN_MOTION": 15.87215168, "ECCENTRICITY": 0.0003751, "INCLINATION": 69.9934, "RA_OF_ASC_NODE": 204.533, "ARG_OF_PERICENTER": 270.7247, "MEAN_ANOMALY": 289.5054, "EPHEMERIS_TYPE": 0, "CLASSIFICATION_TYPE": "U", "NORAD_CAT_ID": 66828, "ELEMENT_SET_NO": 999, "REV_AT_EPOCH": 258, "BSTAR": -0.0070591, "MEAN_MOTION_DOT": -0.01620676, "MEAN_MOTION_DDOT": 0}, "tle": {"line1": "1 66828U 25280H   25344.75002315 -.01620676  00000+0 -70591-2 0  9991", "line2": "2 66828  69.9934 204.5330 0003751 270.7247 289.5054 15.87215168  2586"}}, "geometry": {"type": "Point", "coordinates": [16.235008038372595, 17.264178291631147]}}, {"type": "Feature", "properties": {"norad_id": 66829, "name": "STARLINK-36084", "group": "last-30-days", "lat": 19.16874874780222, "lon": 15.462325282489017, "alt_km": 316.90968240163966, "timestamp": "2025-12-11T08:58:25.856211+00:00", "meta": {"OBJECT_NAME": "STARLINK-36084", "OBJECT_ID": "2025-280J", "EPOCH": "2025-12-10T18:00:02.000160", "MEAN_MOTION": 15.87176966, "ECCENTRICITY": 0.000381, "INCLINATION": 69.9933, "RA_OF_ASC_NODE": 204.5351, "ARG_OF_PERICENTER": 271.3474, "MEAN_ANOMALY": 286.9189, "EPHEMERIS_TYPE": 0, "CLASSIFICATION_TYPE": "U", "NORAD_CAT_ID": 66829, "ELEMENT_SET_NO": 999, "REV_AT_EPOCH": 242, "BSTAR": -0.0070441, "MEAN_MOTION_DOT": -0.0161503, "MEAN_MOTION_DDOT": 0}, "tle": {"line1": "1 66829U 25280J   25344.75002315 -.01615030  00000+0 -70441-2 0  9994", "line2": "2 66829  69.9933 204.5351 0003810 271.3474 286.9189 15.87176966  2429"}}, "geometry": {"type": "Point", "coordinates": [15.462325282489017, 19.16874874780222]}}, {"type": "Feature", "properties": {"norad_id": 66830, "name": "STARLINK-35881", "group": "last-30-days", "lat": 15.746979961191188, "lon": 16.837378004530795, "alt_km": 317.027778698156, "timestamp": "2025-12-11T08:58:25.856222+00:00", "meta": {"OBJECT_NAME": "STARLINK-35881", "OBJECT_ID": "2025-280K", "EPOCH": "2025-12-10T18:00:02.000160", "MEAN_MOTION": 15.8726419, "ECCENTRICITY": 0.0003676, "INCLINATION": 69.993, "RA_OF_ASC_NODE": 204.5307, "ARG_OF_PERICENTER": 269.9668, "MEAN_ANOMALY": 291.7888, "EPHEMERIS_TYPE": 0, "CLASSIFICATION_TYPE": "U", "NORAD_CAT_ID": 66830, "ELEMENT_SET_NO": 999, "REV_AT_EPOCH": 258, "BSTAR": -0.0070807, "MEAN_MOTION_DOT": -0.01628378, "MEAN_MOTION_DDOT": 0}, "tle": {"line1": "1 66830U 25280K   25344.75002315 -.01628378  00000+0 -70807-2 0  9991", "line2": "2 66830  69.9930 204.5307 0003676 269.9668 291.7888 15.87264190  2581"}}, "geometry": {"type": "Point", "coordinates": [16.837378004530795, 15.746979961191188]}}, {"type": "Feature", "properties": {"norad_id": 66831, "name": "STARLINK-35788", "group": "last-30-days", "lat": 14.204777475610763, "lon": 17.441214846562744, "alt_km": 317.0645597052235, "timestamp": "2025-12-11T08:58:25.856243+00:00", "meta": {"OBJECT_NAME": "STARLINK-35788", "OBJECT_ID": "2025-280L", "EPOCH": "2025-12-10T18:00:02.000160", "MEAN_MOTION": 15.87306963, "ECCENTRICITY": 0.0003769, "INCLINATION": 69.9937, "RA_OF_ASC_NODE": 204.5293, "ARG_OF_PERICENTER": 268.9515, "MEAN_ANOMALY": 294.362, "EPHEMERIS_TYPE": 0, "CLASSIFICATION_TYPE": "U", "NORAD_CAT_ID": 66831, "ELEMENT_SET_NO": 999, "REV_AT_EPOCH": 258, "BSTAR": -0.007078, "MEAN_MOTION_DOT": -0.01630974, "MEAN_MOTION_DDOT": 0}, "tle": {"line1": "1 66831U 25280L   25344.75002315 -.01630974  00000+0 -70780-2 0  9997", "line2": "2 66831  69.9937 204.5293 0003769 268.9515 294.3620 15.87306963  2584"}}, "geometry": {"type": "Point", "coordinates": [17.441214846562744, 14.204777475610763]}}, {"type": "Feature", "properties": {"norad_id": 66832, "name": "STARLINK-35768", "group": "last-30-days", "lat": 12.69570048897377, "lon": 18.022232107657842, "alt_km": 317.15889235468876, "timestamp": "2025-12-11T08:58:25.856254+00:00", "meta": {"OBJECT_NAME": "STARLINK-35768", "OBJECT_ID": "2025-280M", "EPOCH": "2025-12-10T18:00:02.000160", "MEAN_MOTION": 15.87348269, "ECCENTRICITY": 0.0003748, "INCLINATION": 69.9933, "RA_OF_ASC_NODE": 204.527, "ARG_OF_PERICENTER": 270.0502, "MEAN_ANOMALY": 294.78, "EPHEMERIS_TYPE": 0, "CLASSIFICATION_TYPE": "U", "NORAD_CAT_ID": 66832, "ELEMENT_SET_NO": 999, "REV_AT_EPOCH": 258, "BSTAR": -0.0070597, "MEAN_MOTION_DOT": -0.01630187, "MEAN_MOTION_DDOT": 0}, "tle": {"line1": "1 66832U 25280M   25344.75002315 -.01630187  00000+0 -70597-2 0  9990", "line2": "2 66832  69.9933 204.5270 0003748 270.0502 294.7800 15.87348269  2582"}}, "geometry": {"type": "Point", "coordinates": [18.022232107657842, 12.69570048897377]}}, {"type": "Feature", "properties": {"norad_id": 66833, "name": "STARLINK-35858", "group": "last-30-days", "lat": 10.755863372526322, "lon": 18.759678227331904, "alt_km": 317.31594887089796, "timestamp": "2025-12-11T08:58:25.856266+00:00", "meta": {"OBJECT_NAME": "STARLINK-35858", "OBJECT_ID": "2025-280N", "EPOCH": "2025-12-10T18:00:02.000160", "MEAN_MOTION": 15.87387192, "ECCENTRICITY": 0.0003729, "INCLINATION": 69.9935, "RA_OF_ASC_NODE": 204.525, "ARG_OF_PERICENTER": 270.7614, "MEAN_ANOMALY": 296.0612, "EPHEMERIS_TYPE": 0, "CLASSIFICATION_TYPE": "U", "NORAD_CAT_ID": 66833, "ELEMENT_SET_NO": 999, "REV_AT_EPOCH": 258, "BSTAR": -0.0070772, "MEAN_MOTION_DOT": -0.01636461, "MEAN_MOTION_DDOT": 0}, "tle": {"line1": "1 66833U 25280N   25344.75002315 -.01636461  00000+0 -70772-2 0  9997", "line2": "2 66833  69.9935 204.5250 0003729 270.7614 296.0612 15.87387192  2587"}}, "geometry": {"type": "Point", "coordinates": [18.759678227331904, 10.755863372526322]}}, {"type": "Feature", "properties": {"norad_id": 66834, "name": "STARLINK-35840", "group": "last-30-days", "lat": 9.191562142153767, "lon": 19.34614726335348, "alt_km": 317.3597092455775, "timestamp": "2025-12-11T08:58:25.856277+00:00", "meta": {"OBJECT_NAME": "STARLINK-35840", "OBJECT_ID": "2025-280P", "EPOCH": "2025-12-10T18:00:02.000160", "MEAN_MOTION": 15.87432671, "ECCENTRICITY": 0.0003772, "INCLINATION": 69.9932, "RA_OF_ASC_NODE": 204.5228, "ARG_OF_PERICENTER": 270.3164, "MEAN_ANOMALY": 298.0805, "EPHEMERIS_TYPE": 0, "CLASSIFICATION_TYPE": "U", "NORAD_CAT_ID": 66834, "ELEMENT_SET_NO": 999, "REV_AT_EPOCH": 258, "BSTAR": -0.0070856, "MEAN_MOTION_DOT": -0.01641469, "MEAN_MOTION_DDOT": 0}, "tle": {"line1": "1 66834U 25280P   25344.75002315 -.01641469  00000+0 -70856-2 0  9995", "line2": "2 66834  69.9932 204.5228 0003772 270.3164 298.0805 15.87432671  2583"}}, "geometry": {"type": "Point", "coordinates": [19.34614726335348, 9.191562142153767]}}, {"type": "Feature", "properties": {"norad_id": 66835, "name": "STARLINK-35890", "group": "last-30-days", "lat": 7.432553432831052, "lon": 19.999405112184437, "alt_km": 317.4248515329764, "timestamp": "2025-12-11T08:58:25.856287+00:00", "meta": {"OBJECT_NAME": "STARLINK-35890", "OBJECT_ID": "2025-280Q", "EPOCH": "2025-12-10T18:00:02.000160", "MEAN_MOTION": 15.87476114, "ECCENTRICITY": 0.0003721, "INCLINATION": 69.993, "RA_OF_ASC_NODE": 204.5206, "ARG_OF_PERICENTER": 269.9277, "MEAN_ANOMALY": 300.2566, "EPHEMERIS_TYPE": 0, "CLASSIFICATION_TYPE": "U", "NORAD_CAT_ID": 66835, "ELEMENT_SET_NO": 999, "REV_AT_EPOCH": 258, "BSTAR": -0.0071042, "MEAN_MOTION_DOT": -0.01648284, "MEAN_MOTION_DDOT": 0}, "tle": {"line1": "1 66835U 25280Q   25344.75002315 -.01648284  00000+0 -71042-2 0  9996", "line2": "2 66835  69.9930 204.5206 0003721 269.9277 300.2566 15.87476114  2581"}}, "geometry": {"type": "Point", "coordinates": [19.999405112184437, 7.432553432831052]}}]}